ORBCOMM FM05            
1 25117U 97084F   24291.85185409  .00006016  00000+0  17818-2 0  9991
2 25117  45.0141  90.1422 0002041 128.2022 231.9013 14.44051611406494
ORBCOMM FM06            
1 25118U 97084G   24291.90057635  .00006233  00000+0  18392-2 0  9996
2 25118  45.0129  89.9535 0001859 156.0821   3.9057 14.44191146406509
ORBCOMM FM04            
1 25159U 98007C   24292.15185291  .00004528  00000+0  16670-2 0  9997
2 25159 107.9676   1.8557 0043588 306.9815  52.7338 14.33401162389638
ORBCOMM FM17            
1 25413U 98046A   24292.13340968  .00004701  00000+0  17186-2 0  9991
2 25413  44.9945 319.1325 0000692 350.2852   9.7981 14.33972744368586
ORBCOMM FM18            
1 25414U 98046B   24292.15280484  .00005959  00000+0  20366-2 0  9990
2 25414  44.9926 242.5687 0002563 136.3943 223.7107 14.37024127369585
ORBCOMM FM19            
1 25415U 98046C   24291.93743289  .00005267  00000+0  18121-2 0  9991
2 25415  44.9935 245.2191 0001462 113.5672 289.7602 14.36850344369342
