<?xml version="1.0" encoding="UTF-8"?>
<ndm xmlns:xsi="http://www.w3.org/2001/XMLSchema-instance" xsi:noNamespaceSchemaLocation="https://sanaregistry.org/r/ndmxml_unqualified/ndmxml-2.0.0-master-2.0.xsd">
<omm id="CCSDS_OMM_VERS" version="2.0">
<header><CREATION_DATE/><ORIGINATOR/></header><body><segment><metadata><OBJECT_NAME>ORBCOMM FM05</OBJECT_NAME><OBJECT_ID>1997-084F</OBJECT_ID><CENTER_NAME>EARTH</CENTER_NAME><REF_FRAME>TEME</REF_FRAME><TIME_SYSTEM>UTC</TIME_SYSTEM><MEAN_ELEMENT_THEORY>SGP4</MEAN_ELEMENT_THEORY></metadata><data><meanElements><EPOCH>2024-10-17T20:26:40.193376</EPOCH><MEAN_MOTION>14.44051611</MEAN_MOTION><ECCENTRICITY>.0002041</ECCENTRICITY><INCLINATION>45.0141</INCLINATION><RA_OF_ASC_NODE>90.1422</RA_OF_ASC_NODE><ARG_OF_PERICENTER>128.2022</ARG_OF_PERICENTER><MEAN_ANOMALY>231.9013</MEAN_ANOMALY></meanElements><tleParameters><EPHEMERIS_TYPE>0</EPHEMERIS_TYPE><CLASSIFICATION_TYPE>U</CLASSIFICATION_TYPE><NORAD_CAT_ID>25117</NORAD_CAT_ID><ELEMENT_SET_NO>999</ELEMENT_SET_NO><REV_AT_EPOCH>40649</REV_AT_EPOCH><BSTAR>.17818E-2</BSTAR><MEAN_MOTION_DOT>.6016E-4</MEAN_MOTION_DOT><MEAN_MOTION_DDOT>0</MEAN_MOTION_DDOT></tleParameters></data></segment></body></omm>
<omm id="CCSDS_OMM_VERS" version="2.0">
<header><CREATION_DATE/><ORIGINATOR/></header><body><segment><metadata><OBJECT_NAME>ORBCOMM FM06</OBJECT_NAME><OBJECT_ID>1997-084G</OBJECT_ID><CENTER_NAME>EARTH</CENTER_NAME><REF_FRAME>TEME</REF_FRAME><TIME_SYSTEM>UTC</TIME_SYSTEM><MEAN_ELEMENT_THEORY>SGP4</MEAN_ELEMENT_THEORY></metadata><data><meanElements><EPOCH>2024-10-17T21:36:49.796640</EPOCH><MEAN_MOTION>14.44191146</MEAN_MOTION><ECCENTRICITY>.0001859</ECCENTRICITY><INCLINATION>45.0129</INCLINATION><RA_OF_ASC_NODE>89.9535</RA_OF_ASC_NODE><ARG_OF_PERICENTER>156.0821</ARG_OF_PERICENTER><MEAN_ANOMALY>3.9057</MEAN_ANOMALY></meanElements><tleParameters><EPHEMERIS_TYPE>0</EPHEMERIS_TYPE><CLASSIFICATION_TYPE>U</CLASSIFICATION_TYPE><NORAD_CAT_ID>25118</NORAD_CAT_ID><ELEMENT_SET_NO>999</ELEMENT_SET_NO><REV_AT_EPOCH>40650</REV_AT_EPOCH><BSTAR>.18392E-2</BSTAR><MEAN_MOTION_DOT>.6233E-4</MEAN_MOTION_DOT><MEAN_MOTION_DDOT>0</MEAN_MOTION_DDOT></tleParameters></data></segment></body></omm>
<omm id="CCSDS_OMM_VERS" version="2.0">
<header><CREATION_DATE/><ORIGINATOR/></header><body><segment><metadata><OBJECT_NAME>ORBCOMM FM04</OBJECT_NAME><OBJECT_ID>1998-007C</OBJECT_ID><CENTER_NAME>EARTH</CENTER_NAME><REF_FRAME>TEME</REF_FRAME><TIME_SYSTEM>UTC</TIME_SYSTEM><MEAN_ELEMENT_THEORY>SGP4</MEAN_ELEMENT_THEORY></metadata><data><meanElements><EPOCH>2024-10-18T03:38:40.091424</EPOCH><MEAN_MOTION>14.33401162</MEAN_MOTION><ECCENTRICITY>.0043588</ECCENTRICITY><INCLINATION>107.9676</INCLINATION><RA_OF_ASC_NODE>1.8557</RA_OF_ASC_NODE><ARG_OF_PERICENTER>306.9815</ARG_OF_PERICENTER><MEAN_ANOMALY>52.7338</MEAN_ANOMALY></meanElements><tleParameters><EPHEMERIS_TYPE>0</EPHEMERIS_TYPE><CLASSIFICATION_TYPE>U</CLASSIFICATION_TYPE><NORAD_CAT_ID>25159</NORAD_CAT_ID><ELEMENT_SET_NO>999</ELEMENT_SET_NO><REV_AT_EPOCH>38963</REV_AT_EPOCH><BSTAR>.1667E-2</BSTAR><MEAN_MOTION_DOT>.4528E-4</MEAN_MOTION_DOT><MEAN_MOTION_DDOT>0</MEAN_MOTION_DDOT></tleParameters></data></segment></body></omm>
<omm id="CCSDS_OMM_VERS" version="2.0">
<header><CREATION_DATE/><ORIGINATOR/></header><body><segment><metadata><OBJECT_NAME>ORBCOMM FM17</OBJECT_NAME><OBJECT_ID>1998-046A</OBJECT_ID><CENTER_NAME>EARTH</CENTER_NAME><REF_FRAME>TEME</REF_FRAME><TIME_SYSTEM>UTC</TIME_SYSTEM><MEAN_ELEMENT_THEORY>SGP4</MEAN_ELEMENT_THEORY></metadata><data><meanElements><EPOCH>2024-10-18T03:12:06.596352</EPOCH><MEAN_MOTION>14.33972744</MEAN_MOTION><ECCENTRICITY>.0000692</ECCENTRICITY><INCLINATION>44.9945</INCLINATION><RA_OF_ASC_NODE>319.1325</RA_OF_ASC_NODE><ARG_OF_PERICENTER>350.2852</ARG_OF_PERICENTER><MEAN_ANOMALY>9.7981</MEAN_ANOMALY></meanElements><tleParameters><EPHEMERIS_TYPE>0</EPHEMERIS_TYPE><CLASSIFICATION_TYPE>U</CLASSIFICATION_TYPE><NORAD_CAT_ID>25413</NORAD_CAT_ID><ELEMENT_SET_NO>999</ELEMENT_SET_NO><REV_AT_EPOCH>36858</REV_AT_EPOCH><BSTAR>.17186E-2</BSTAR><MEAN_MOTION_DOT>.4701E-4</MEAN_MOTION_DOT><MEAN_MOTION_DDOT>0</MEAN_MOTION_DDOT></tleParameters></data></segment></body></omm>
<omm id="CCSDS_OMM_VERS" version="2.0">
<header><CREATION_DATE/><ORIGINATOR/></header><body><segment><metadata><OBJECT_NAME>ORBCOMM FM18</OBJECT_NAME><OBJECT_ID>1998-046B</OBJECT_ID><CENTER_NAME>EARTH</CENTER_NAME><REF_FRAME>TEME</REF_FRAME><TIME_SYSTEM>UTC</TIME_SYSTEM><MEAN_ELEMENT_THEORY>SGP4</MEAN_ELEMENT_THEORY></metadata><data><meanElements><EPOCH>2024-10-18T03:40:02.338176</EPOCH><MEAN_MOTION>14.37024127</MEAN_MOTION><ECCENTRICITY>.0002563</ECCENTRICITY><INCLINATION>44.9926</INCLINATION><RA_OF_ASC_NODE>242.5687</RA_OF_ASC_NODE><ARG_OF_PERICENTER>136.3943</ARG_OF_PERICENTER><MEAN_ANOMALY>223.7107</MEAN_ANOMALY></meanElements><tleParameters><EPHEMERIS_TYPE>0</EPHEMERIS_TYPE><CLASSIFICATION_TYPE>U</CLASSIFICATION_TYPE><NORAD_CAT_ID>25414</NORAD_CAT_ID><ELEMENT_SET_NO>999</ELEMENT_SET_NO><REV_AT_EPOCH>36958</REV_AT_EPOCH><BSTAR>.20366E-2</BSTAR><MEAN_MOTION_DOT>.5959E-4</MEAN_MOTION_DOT><MEAN_MOTION_DDOT>0</MEAN_MOTION_DDOT></tleParameters></data></segment></body></omm>
<omm id="CCSDS_OMM_VERS" version="2.0">
<header><CREATION_DATE/><ORIGINATOR/></header><body><segment><metadata><OBJECT_NAME>ORBCOMM FM19</OBJECT_NAME><OBJECT_ID>1998-046C</OBJECT_ID><CENTER_NAME>EARTH</CENTER_NAME><REF_FRAME>TEME</REF_FRAME><TIME_SYSTEM>UTC</TIME_SYSTEM><MEAN_ELEMENT_THEORY>SGP4</MEAN_ELEMENT_THEORY></metadata><data><meanElements><EPOCH>2024-10-17T22:29:54.201696</EPOCH><MEAN_MOTION>14.36850344</MEAN_MOTION><ECCENTRICITY>.0001462</ECCENTRICITY><INCLINATION>44.9935</INCLINATION><RA_OF_ASC_NODE>245.2191</RA_OF_ASC_NODE><ARG_OF_PERICENTER>113.5672</ARG_OF_PERICENTER><MEAN_ANOMALY>289.7602</MEAN_ANOMALY></meanElements><tleParameters><EPHEMERIS_TYPE>0</EPHEMERIS_TYPE><CLASSIFICATION_TYPE>U</CLASSIFICATION_TYPE><NORAD_CAT_ID>25415</NORAD_CAT_ID><ELEMENT_SET_NO>999</ELEMENT_SET_NO><REV_AT_EPOCH>36934</REV_AT_EPOCH><BSTAR>.18121E-2</BSTAR><MEAN_MOTION_DOT>.5267E-4</MEAN_MOTION_DOT><MEAN_MOTION_DDOT>0</MEAN_MOTION_DDOT></tleParameters></data></segment></body></omm>

</ndm>
